start=new Date('2022-09-17T00:00:00.000Z').valueOf();
sats=[{"RA_OF_ASC_NODE":"203.5187","TIME_SYSTEM":"UTC","PERIAPSIS":"546.322","TLE_LINE1":"1 47904U 21021AW  22259.54731004  .00000554  00000-0  56087-4 0  9998","MEAN_ELEMENT_THEORY":"SGP4","ARG_OF_PERICENTER":"85.0824","ECCENTRICITY":"0.00013290","SEMIMAJOR_AXIS":"6925.377","DECAY_DATE":null,"OBJECT_TYPE":"PAYLOAD","ELEMENT_SET_NO":"999","RCS_SIZE":"LARGE","REV_AT_EPOCH":"8487","MEAN_MOTION_DDOT":"0.0000000000000","MEAN_ANOMALY":"275.0316","PERIOD":"95.593","NORAD_CAT_ID":"47904","OBJECT_ID":"2021-021AW","APOAPSIS":"548.162","MEAN_MOTION_DOT":"0.00000554","CLASSIFICATION_TYPE":"U","TLE_LINE2":"2 47904  53.0549 203.5187 0001329  85.0824 275.0316 15.06390728 84872","SITE":"AFETR","OBJECT_NAME":"STARLINK-2364","CENTER_NAME":"EARTH","GP_ID":"212717550","LAUNCH_DATE":"2021-03-14","REF_FRAME":"TEME","BSTAR":"0.00005608700000","EPHEMERIS_TYPE":"0","INCLINATION":"53.0549","COUNTRY_CODE":"US","FILE":"3575604","MEAN_MOTION":"15.06390728","EPOCH":"2022-09-16T13:08:07.587456"},{"LAUNCH_DATE":"2021-03-14","REF_FRAME":"TEME","GP_ID":"212717301","INCLINATION":"53.0553","BSTAR":"0.00007192400000","EPHEMERIS_TYPE":"0","COUNTRY_CODE":"US","EPOCH":"2022-09-16T13:01:27.278976","FILE":"3575604","MEAN_MOTION":"15.06397038","APOAPSIS":"548.200","MEAN_MOTION_DOT":"0.00000790","CLASSIFICATION_TYPE":"U","TLE_LINE2":"2 47905  53.0553 203.5191 0001411  69.4033 290.7108 15.06397038 85003","SITE":"AFETR","OBJECT_NAME":"STARLINK-2365","CENTER_NAME":"EARTH","RCS_SIZE":"LARGE","ELEMENT_SET_NO":"999","REV_AT_EPOCH":"8500","MEAN_MOTION_DDOT":"0.0000000000000","OBJECT_ID":"2021-021AX","PERIOD":"95.592","MEAN_ANOMALY":"290.7108","NORAD_CAT_ID":"47905","PERIAPSIS":"546.245","RA_OF_ASC_NODE":"203.5191","TIME_SYSTEM":"UTC","TLE_LINE1":"1 47905U 21021AX  22259.54267684  .00000790  00000-0  71924-4 0  9996","MEAN_ELEMENT_THEORY":"SGP4","SEMIMAJOR_AXIS":"6925.358","DECAY_DATE":null,"OBJECT_TYPE":"PAYLOAD","ARG_OF_PERICENTER":"69.4033","ECCENTRICITY":"0.00014110"},{"CLASSIFICATION_TYPE":"U","TLE_LINE2":"2 47906  53.0271 357.1994 0008757 279.3550  80.6479 15.76698177 87895","SITE":"AFETR","OBJECT_NAME":"STARLINK-2366","CENTER_NAME":"EARTH","APOAPSIS":"345.688","MEAN_MOTION_DOT":"-0.00007884","COUNTRY_CODE":"US","EPOCH":"2022-09-16T17:40:19.538400","MEAN_MOTION":"15.76698177","FILE":"3575787","REF_FRAME":"TEME","LAUNCH_DATE":"2021-03-14","GP_ID":"212747352","INCLINATION":"53.0271","EPHEMERIS_TYPE":"0","BSTAR":"-0.00004406200000","MEAN_ELEMENT_THEORY":"SGP4","SEMIMAJOR_AXIS":"6717.940","DECAY_DATE":null,"OBJECT_TYPE":"PAYLOAD","ARG_OF_PERICENTER":"279.3550","ECCENTRICITY":"0.00087570","PERIAPSIS":"333.922","TIME_SYSTEM":"UTC","RA_OF_ASC_NODE":"357.1994","TLE_LINE1":"1 47906U 21021AY  22259.73633725 -.00007884  00000-0 -44062-4 0  9997","MEAN_MOTION_DDOT":"0.0000000000000","REV_AT_EPOCH":"8789","OBJECT_ID":"2021-021AY","NORAD_CAT_ID":"47906","MEAN_ANOMALY":"80.6479","PERIOD":"91.330","RCS_SIZE":"LARGE","ELEMENT_SET_NO":"999"},{"NORAD_CAT_ID":"47907","MEAN_ANOMALY":"282.9142","PERIOD":"95.592","OBJECT_ID":"2021-021AZ","MEAN_MOTION_DDOT":"0.0000000000000","REV_AT_EPOCH":"8458","ELEMENT_SET_NO":"999","RCS_SIZE":"LARGE","ARG_OF_PERICENTER":"77.2024","ECCENTRICITY":"0.00015900","SEMIMAJOR_AXIS":"6925.337","DECAY_DATE":null,"OBJECT_TYPE":"PAYLOAD","MEAN_ELEMENT_THEORY":"SGP4","TLE_LINE1":"1 47907U 21021AZ  22259.61918762  .00002447  00000-0  18311-3 0  9997","TIME_SYSTEM":"UTC","RA_OF_ASC_NODE":"223.1963","PERIAPSIS":"546.101","MEAN_MOTION":"15.06403853","FILE":"3575787","EPOCH":"2022-09-16T14:51:37.810368","COUNTRY_CODE":"US","EPHEMERIS_TYPE":"0","BSTAR":"0.00018311000000","INCLINATION":"53.0519","GP_ID":"212747602","REF_FRAME":"TEME","LAUNCH_DATE":"2021-03-14","SITE":"AFETR","TLE_LINE2":"2 47907  53.0519 223.1963 0001590  77.2024 282.9142 15.06403853 84583","CENTER_NAME":"EARTH","OBJECT_NAME":"STARLINK-2367","CLASSIFICATION_TYPE":"U","MEAN_MOTION_DOT":"0.00002447","APOAPSIS":"548.303"},{"GP_ID":"212747854","LAUNCH_DATE":"2021-03-14","REF_FRAME":"TEME","BSTAR":"0.00020180000000","EPHEMERIS_TYPE":"0","INCLINATION":"53.0524","COUNTRY_CODE":"US","FILE":"3575787","MEAN_MOTION":"15.06402591","EPOCH":"2022-09-16T15:02:14.658720","APOAPSIS":"548.146","MEAN_MOTION_DOT":"0.00002726","CLASSIFICATION_TYPE":"U","SITE":"AFETR","TLE_LINE2":"2 47908  53.0524 223.1642 0001358  74.7378 285.3761 15.06402591 84616","OBJECT_NAME":"STARLINK-2368","CENTER_NAME":"EARTH","ELEMENT_SET_NO":"999","RCS_SIZE":"LARGE","MEAN_MOTION_DDOT":"0.0000000000000","REV_AT_EPOCH":"8461","PERIOD":"95.592","MEAN_ANOMALY":"285.3761","NORAD_CAT_ID":"47908","OBJECT_ID":"2021-021BA","TIME_SYSTEM":"UTC","RA_OF_ASC_NODE":"223.1642","PERIAPSIS":"546.265","TLE_LINE1":"1 47908U 21021BA  22259.62655855  .00002726  00000-0  20180-3 0  9997","MEAN_ELEMENT_THEORY":"SGP4","ARG_OF_PERICENTER":"74.7378","ECCENTRICITY":"0.00013580","SEMIMAJOR_AXIS":"6925.341","DECAY_DATE":null,"OBJECT_TYPE":"PAYLOAD"},{"REF_FRAME":"TEME","LAUNCH_DATE":"2021-03-14","GP_ID":"212722362","INCLINATION":"53.0531","BSTAR":"0.00005675700000","EPHEMERIS_TYPE":"0","COUNTRY_CODE":"US","EPOCH":"2022-09-16T20:11:25.239840","FILE":"3575619","MEAN_MOTION":"15.06391625","APOAPSIS":"548.069","MEAN_MOTION_DOT":"0.00000564","CLASSIFICATION_TYPE":"U","CENTER_NAME":"EARTH","TLE_LINE2":"2 47909  53.0531 212.1995 0001198  79.9595 280.1529 15.06391625 84311","SITE":"AFETR","OBJECT_NAME":"STARLINK-2369","RCS_SIZE":"LARGE","ELEMENT_SET_NO":"999","REV_AT_EPOCH":"8431","MEAN_MOTION_DDOT":"0.0000000000000","OBJECT_ID":"2021-021BB","PERIOD":"95.593","MEAN_ANOMALY":"280.1529","NORAD_CAT_ID":"47909","PERIAPSIS":"546.410","TIME_SYSTEM":"UTC","RA_OF_ASC_NODE":"212.1995","TLE_LINE1":"1 47909U 21021BB  22259.84126435  .00000564  00000-0  56757-4 0  9997","MEAN_ELEMENT_THEORY":"SGP4","DECAY_DATE":null,"SEMIMAJOR_AXIS":"6925.374","OBJECT_TYPE":"PAYLOAD","ARG_OF_PERICENTER":"79.9595","ECCENTRICITY":"0.00011980"},{"COUNTRY_CODE":"US","EPOCH":"2022-09-16T14:40:57.661536","FILE":"3575787","MEAN_MOTION":"15.06412037","LAUNCH_DATE":"2021-03-14","REF_FRAME":"TEME","GP_ID":"212746853","INCLINATION":"53.0542","BSTAR":"0.00018970000000","EPHEMERIS_TYPE":"0","CLASSIFICATION_TYPE":"U","TLE_LINE2":"2 47910  53.0542 213.2330 0001588  71.2749 288.8412 15.06412037 84776","SITE":"AFETR","CENTER_NAME":"EARTH","OBJECT_NAME":"STARLINK-2370","APOAPSIS":"548.276","MEAN_MOTION_DOT":"0.00002546","MEAN_MOTION_DDOT":"0.0000000000000","REV_AT_EPOCH":"8477","OBJECT_ID":"2021-021BC","MEAN_ANOMALY":"288.8412","PERIOD":"95.591","NORAD_CAT_ID":"47910","RCS_SIZE":"LARGE","ELEMENT_SET_NO":"999","MEAN_ELEMENT_THEORY":"SGP4","DECAY_DATE":null,"SEMIMAJOR_AXIS":"6925.312","OBJECT_TYPE":"PAYLOAD","ARG_OF_PERICENTER":"71.2749","ECCENTRICITY":"0.00015880","PERIAPSIS":"546.077","RA_OF_ASC_NODE":"213.2330","TIME_SYSTEM":"UTC","TLE_LINE1":"1 47910U 21021BC  22259.61177849  .00002546  00000-0  18970-3 0  9995"},{"LAUNCH_DATE":"2021-03-14","REF_FRAME":"TEME","GP_ID":"212747103","INCLINATION":"53.0546","EPHEMERIS_TYPE":"0","BSTAR":"0.00012727000000","COUNTRY_CODE":"US","EPOCH":"2022-09-16T16:39:49.233312","MEAN_MOTION":"15.06391876","FILE":"3575787","APOAPSIS":"548.254","MEAN_MOTION_DOT":"0.00001614","CLASSIFICATION_TYPE":"U","TLE_LINE2":"2 47911  53.0546 228.0948 0001467  78.4665 281.6489 15.06391876 84404","SITE":"AFETR","CENTER_NAME":"EARTH","OBJECT_NAME":"STARLINK-2371","RCS_SIZE":"LARGE","ELEMENT_SET_NO":"999","MEAN_MOTION_DDOT":"0.0000000000000","REV_AT_EPOCH":"8440","OBJECT_ID":"2021-021BD","NORAD_CAT_ID":"47911","MEAN_ANOMALY":"281.6489","PERIOD":"95.593","PERIAPSIS":"546.223","RA_OF_ASC_NODE":"228.0948","TIME_SYSTEM":"UTC","TLE_LINE1":"1 47911U 21021BD  22259.69431983  .00001614  00000-0  12727-3 0  9995","MEAN_ELEMENT_THEORY":"SGP4","DECAY_DATE":null,"SEMIMAJOR_AXIS":"6925.373","OBJECT_TYPE":"PAYLOAD","ARG_OF_PERICENTER":"78.4665","ECCENTRICITY":"0.00014670"},{"NORAD_CAT_ID":"47912","MEAN_ANOMALY":"295.3239","PERIOD":"95.592","OBJECT_ID":"2021-021BE","MEAN_MOTION_DDOT":"0.0000000000000","REV_AT_EPOCH":"8455","ELEMENT_SET_NO":"999","RCS_SIZE":"LARGE","ARG_OF_PERICENTER":"64.7910","ECCENTRICITY":"0.00015380","DECAY_DATE":null,"SEMIMAJOR_AXIS":"6925.357","OBJECT_TYPE":"PAYLOAD","MEAN_ELEMENT_THEORY":"SGP4","TLE_LINE1":"1 47912U 21021BE  22259.27268384  .00001329  00000-0  10812-3 0  9999","TIME_SYSTEM":"UTC","RA_OF_ASC_NODE":"214.7399","PERIAPSIS":"546.157","MEAN_MOTION":"15.06397318","FILE":"3575604","EPOCH":"2022-09-16T06:32:39.883776","COUNTRY_CODE":"US","EPHEMERIS_TYPE":"0","BSTAR":"0.00010812000000","INCLINATION":"53.0537","GP_ID":"212717551","LAUNCH_DATE":"2021-03-14","REF_FRAME":"TEME","TLE_LINE2":"2 47912  53.0537 214.7399 0001538  64.7910 295.3239 15.06397318 84555","SITE":"AFETR","CENTER_NAME":"EARTH","OBJECT_NAME":"STARLINK-2372","CLASSIFICATION_TYPE":"U","MEAN_MOTION_DOT":"0.00001329","APOAPSIS":"548.287"},{"TLE_LINE2":"2 47913  53.0540 225.1906 0001391  79.6294 280.4852 15.06399146 84576","SITE":"AFETR","CENTER_NAME":"EARTH","OBJECT_NAME":"STARLINK-2374","CLASSIFICATION_TYPE":"U","MEAN_MOTION_DOT":"0.00001346","APOAPSIS":"548.179","EPOCH":"2022-09-16T06:43:24.261888","MEAN_MOTION":"15.06399146","FILE":"3575604","COUNTRY_CODE":"US","INCLINATION":"53.0540","EPHEMERIS_TYPE":"0","BSTAR":"0.00010926000000","REF_FRAME":"TEME","LAUNCH_DATE":"2021-03-14","GP_ID":"212717302","SEMIMAJOR_AXIS":"6925.351","DECAY_DATE":null,"OBJECT_TYPE":"PAYLOAD","ARG_OF_PERICENTER":"79.6294","ECCENTRICITY":"0.00013910","MEAN_ELEMENT_THEORY":"SGP4","TLE_LINE1":"1 47913U 21021BF  22259.28014192  .00001346  00000-0  10926-3 0  9992","PERIAPSIS":"546.253","RA_OF_ASC_NODE":"225.1906","TIME_SYSTEM":"UTC","OBJECT_ID":"2021-021BF","NORAD_CAT_ID":"47913","PERIOD":"95.592","MEAN_ANOMALY":"280.4852","MEAN_MOTION_DDOT":"0.0000000000000","REV_AT_EPOCH":"8457","RCS_SIZE":"LARGE","ELEMENT_SET_NO":"999"}];
